{"type": "FeatureCollection", "features": [ {"type": "Feature", "properties": {"norad_id": 66476, "name": "STARLINK-35372", "group": "last-30-days", "lat": 41.12497262979417, "lon": -117.08000091485486, "alt_km": 366.9197989469758, "timestamp": "2025-12-02T06:27:51.801221+00:00", "meta": {"OBJECT_NAME": "STARLINK-35372", "OBJECT_ID": "2025-262W", "EPOCH": "2025-12-01T20:00:01.999008", "MEAN_MOTION": 15.67289905, "ECCENTRICITY": 0.0001235, "INCLINATION": 42.9993, "RA_OF_ASC_NODE": 135.0872, "ARG_OF_PERICENTER": 281.7368, "MEAN_ANOMALY": 242.0737, "EPHEMERIS_TYPE": 0, "CLASSIFICATION_TYPE": "U", "NORAD_CAT_ID": 66476, "ELEMENT_SET_NO": 999, "REV_AT_EPOCH": 377, "BSTAR": -0.020928, "MEAN_MOTION_DOT": -0.02036329, "MEAN_MOTION_DDOT": 0}, "tle": {"line1": "1 66476U 25262W   25335.83335647 -.02036329  00000+0 -20928-1 0  9991", "line2": "2 66476  42.9993 135.0872 0001235 281.7368 242.0737 15.67289905  3773"}}, "geometry": {"type": "Point", "coordinates": [-117.08000091485486, 41.12497262979417]}}, {"type": "Feature", "properties": {"norad_id": 66477, "name": "STARLINK-35354", "group": "last-30-days", "lat": 40.10720158149338, "lon": -112.21395516346566, "alt_km": 367.1324072281086, "timestamp": "2025-12-02T06:27:51.801231+00:00", "meta": {"OBJECT_NAME": "STARLINK-35354", "OBJECT_ID": "2025-262X", "EPOCH": "2025-12-01T20:00:01.999008", "MEAN_MOTION": 15.67299265, "ECCENTRICITY": 0.0001297, "INCLINATION": 42.9992, "RA_OF_ASC_NODE": 135.077, "ARG_OF_PERICENTER": 281.1684, "MEAN_ANOMALY": 246.4715, "EPHEMERIS_TYPE": 0, "CLASSIFICATION_TYPE": "U", "NORAD_CAT_ID": 66477, "ELEMENT_SET_NO": 999, "REV_AT_EPOCH": 388, "BSTAR": -0.021052, "MEAN_MOTION_DOT": -0.02047629, "MEAN_MOTION_DDOT": 0}, "tle": {"line1": "1 66477U 25262X   25335.83335647 -.02047629  00000+0 -21052-1 0  9996", "line2": "2 66477  42.9992 135.0770 0001297 281.1684 246.4715 15.67299265  3889"}}, "geometry": {"type": "Point", "coordinates": [-112.21395516346566, 40.10720158149338]}}, {"type": "Feature", "properties": {"norad_id": 66478, "name": "STARLINK-35283", "group": "last-30-days", "lat": 39.523747283055805, "lon": -109.84208566285834, "alt_km": 367.26710837343853, "timestamp": "2025-12-02T06:27:51.801241+00:00", "meta": {"OBJECT_NAME": "STARLINK-35283", "OBJECT_ID": "2025-262Y", "EPOCH": "2025-12-01T20:00:01.999008", "MEAN_MOTION": 15.67291873, "ECCENTRICITY": 0.0001375, "INCLINATION": 42.999, "RA_OF_ASC_NODE": 135.0717, "ARG_OF_PERICENTER": 280.7073, "MEAN_ANOMALY": 248.8518, "EPHEMERIS_TYPE": 0, "CLASSIFICATION_TYPE": "U", "NORAD_CAT_ID": 66478, "ELEMENT_SET_NO": 999, "REV_AT_EPOCH": 388, "BSTAR": -0.020952, "MEAN_MOTION_DOT": -0.02038643, "MEAN_MOTION_DDOT": 0}, "tle": {"line1": "1 66478U 25262Y   25335.83335647 -.02038643  00000+0 -20952-1 0  9991", "line2": "2 66478  42.9990 135.0717 0001375 280.7073 248.8518 15.67291873  3887"}}, "geometry": {"type": "Point", "coordinates": [-109.84208566285834, 39.523747283055805]}}, {"type": "Feature", "properties": {"norad_id": 66479, "name": "STARLINK-35581", "group": "last-30-days", "lat": 40.64185132339504, "lon": -114.62945066974335, "alt_km": 367.0902401916064, "timestamp": "2025-12-02T06:27:51.801253+00:00", "meta": {"OBJECT_NAME": "STARLINK-35581", "OBJECT_ID": "2025-262Z", "EPOCH": "2025-12-01T20:00:01.999008", "MEAN_MOTION": 15.67298145, "ECCENTRICITY": 0.0001371, "INCLINATION": 42.9993, "RA_OF_ASC_NODE": 135.0814, "ARG_OF_PERICENTER": 283.5897, "MEAN_ANOMALY": 242.1304, "EPHEMERIS_TYPE": 0, "CLASSIFICATION_TYPE": "U", "NORAD_CAT_ID": 66479, "ELEMENT_SET_NO": 999, "REV_AT_EPOCH": 388, "BSTAR": -0.021009, "MEAN_MOTION_DOT": -0.02043942, "MEAN_MOTION_DDOT": 0}, "tle": {"line1": "1 66479U 25262Z   25335.83335647 -.02043942  00000+0 -21009-1 0  9994", "line2": "2 66479  42.9993 135.0814 0001371 283.5897 242.1304 15.67298145  3889"}}, "geometry": {"type": "Point", "coordinates": [-114.62945066974335, 40.64185132339504]}}, {"type": "Feature", "properties": {"norad_id": 66480, "name": "STARLINK-35670", "group": "last-30-days", "lat": 38.891780774179715, "lon": -107.50762766373677, "alt_km": 367.3579562094519, "timestamp": "2025-12-02T06:27:51.801274+00:00", "meta": {"OBJECT_NAME": "STARLINK-35670", "OBJECT_ID": "2025-262AA", "EPOCH": "2025-12-01T20:00:01.999008", "MEAN_MOTION": 15.6729193, "ECCENTRICITY": 0.0001362, "INCLINATION": 42.999, "RA_OF_ASC_NODE": 135.0662, "ARG_OF_PERICENTER": 281.9955, "MEAN_ANOMALY": 249.4814, "EPHEMERIS_TYPE": 0, "CLASSIFICATION_TYPE": "U", "NORAD_CAT_ID": 66480, "ELEMENT_SET_NO": 999, "REV_AT_EPOCH": 388, "BSTAR": -0.020956, "MEAN_MOTION_DOT": -0.02038963, "MEAN_MOTION_DDOT": 0}, "tle": {"line1": "1 66480U 25262AA  25335.83335647 -.02038963  00000+0 -20956-1 0  9993", "line2": "2 66480  42.9990 135.0662 0001362 281.9955 249.4814 15.67291930  3887"}}, "geometry": {"type": "Point", "coordinates": [-107.50762766373677, 38.891780774179715]}}, {"type": "Feature", "properties": {"norad_id": 66481, "name": "STARLINK-35698", "group": "last-30-days", "lat": 38.21436014850278, "lon": -105.21574028033523, "alt_km": 367.4690011266548, "timestamp": "2025-12-02T06:27:51.801288+00:00", "meta": {"OBJECT_NAME": "STARLINK-35698", "OBJECT_ID": "2025-262AB", "EPOCH": "2025-12-01T20:00:01.999008", "MEAN_MOTION": 15.67295957, "ECCENTRICITY": 0.0001364, "INCLINATION": 42.9994, "RA_OF_ASC_NODE": 135.0609, "ARG_OF_PERICENTER": 282.4767, "MEAN_ANOMALY": 250.9161, "EPHEMERIS_TYPE": 0, "CLASSIFICATION_TYPE": "U", "NORAD_CAT_ID": 66481, "ELEMENT_SET_NO": 999, "REV_AT_EPOCH": 388, "BSTAR": -0.021013, "MEAN_MOTION_DOT": -0.02044127, "MEAN_MOTION_DDOT": 0}, "tle": {"line1": "1 66481U 25262AB  25335.83335647 -.02044127  00000+0 -21013-1 0  9998", "line2": "2 66481  42.9994 135.0609 0001364 282.4767 250.9161 15.67295957  3887"}}, "geometry": {"type": "Point", "coordinates": [-105.21574028033523, 38.21436014850278]}}, {"type": "Feature", "properties": {"norad_id": 66482, "name": "STARLINK-35648", "group": "last-30-days", "lat": 37.49314295380243, "lon": -102.96865503455142, "alt_km": 367.5369423399152, "timestamp": "2025-12-02T06:27:51.801299+00:00", "meta": {"OBJECT_NAME": "STARLINK-35648", "OBJECT_ID": "2025-262AC", "EPOCH": "2025-12-01T20:00:01.999008", "MEAN_MOTION": 15.67292888, "ECCENTRICITY": 0.0001326, "INCLINATION": 42.9992, "RA_OF_ASC_NODE": 135.0567, "ARG_OF_PERICENTER": 281.7844, "MEAN_ANOMALY": 253.524, "EPHEMERIS_TYPE": 0, "CLASSIFICATION_TYPE": "U", "NORAD_CAT_ID": 66482, "ELEMENT_SET_NO": 999, "REV_AT_EPOCH": 372, "BSTAR": -0.020935, "MEAN_MOTION_DOT": -0.02037229, "MEAN_MOTION_DDOT": 0}, "tle": {"line1": "1 66482U 25262AC  25335.83335647 -.02037229  00000+0 -20935-1 0  9996", "line2": "2 66482  42.9992 135.0567 0001326 281.7844 253.5240 15.67292888  3725"}}, "geometry": {"type": "Point", "coordinates": [-102.96865503455142, 37.49314295380243]}}, {"type": "Feature", "properties": {"norad_id": 66483, "name": "STARLINK-35654", "group": "last-30-days", "lat": 36.7303499637894, "lon": -100.76684345895954, "alt_km": 367.6698017001463, "timestamp": "2025-12-02T06:27:51.801309+00:00", "meta": {"OBJECT_NAME": "STARLINK-35654", "OBJECT_ID": "2025-262AD", "EPOCH": "2025-12-01T20:00:01.999008", "MEAN_MOTION": 15.67295198, "ECCENTRICITY": 0.0001341, "INCLINATION": 42.9995, "RA_OF_ASC_NODE": 135.051, "ARG_OF_PERICENTER": 282.0239, "MEAN_ANOMALY": 255.201, "EPHEMERIS_TYPE": 0, "CLASSIFICATION_TYPE": "U", "NORAD_CAT_ID": 66483, "ELEMENT_SET_NO": 999, "REV_AT_EPOCH": 388, "BSTAR": -0.020981, "MEAN_MOTION_DOT": -0.02041268, "MEAN_MOTION_DDOT": 0}, "tle": {"line1": "1 66483U 25262AD  25335.83335647 -.02041268  00000+0 -20981-1 0  9996", "line2": "2 66483  42.9995 135.0510 0001341 282.0239 255.2010 15.67295198  3884"}}, "geometry": {"type": "Point", "coordinates": [-100.76684345895954, 36.7303499637894]}}, {"type": "Feature", "properties": {"norad_id": 66484, "name": "STARLINK-35371", "group": "last-30-days", "lat": 35.92750106880192, "lon": -98.60813129191042, "alt_km": 367.78606649915673, "timestamp": "2025-12-02T06:27:51.801324+00:00", "meta": {"OBJECT_NAME": "STARLINK-35371", "OBJECT_ID": "2025-262AE", "EPOCH": "2025-12-01T20:00:01.999008", "MEAN_MOTION": 15.67294665, "ECCENTRICITY": 0.0001345, "INCLINATION": 42.9994, "RA_OF_ASC_NODE": 135.0475, "ARG_OF_PERICENTER": 279.7193, "MEAN_ANOMALY": 259.4248, "EPHEMERIS_TYPE": 0, "CLASSIFICATION_TYPE": "U", "NORAD_CAT_ID": 66484, "ELEMENT_SET_NO": 999, "REV_AT_EPOCH": 388, "BSTAR": -0.020998, "MEAN_MOTION_DOT": -0.02042676, "MEAN_MOTION_DDOT": 0}, "tle": {"line1": "1 66484U 25262AE  25335.83335647 -.02042676  00000+0 -20998-1 0  9999", "line2": "2 66484  42.9994 135.0475 0001345 279.7193 259.4248 15.67294665  3887"}}, "geometry": {"type": "Point", "coordinates": [-98.60813129191042, 35.92750106880192]}}, {"type": "Feature", "properties": {"norad_id": 66485, "name": "STARLINK-34774", "group": "last-30-days", "lat": 11.377446655600897, "lon": -5.371981169578353, "alt_km": 343.105490747992, "timestamp": "2025-12-02T06:27:51.801336+00:00", "meta": {"OBJECT_NAME": "STARLINK-34774", "OBJECT_ID": "2025-263A", "EPOCH": "2025-12-01T20:00:01.999008", "MEAN_MOTION": 15.7505521, "ECCENTRICITY": 0.0002048, "INCLINATION": 42.9993, "RA_OF_ASC_NODE": 189.7452, "ARG_OF_PERICENTER": 267.9321, "MEAN_ANOMALY": 300.0065, "EPHEMERIS_TYPE": 0, "CLASSIFICATION_TYPE": "U", "NORAD_CAT_ID": 66485, "ELEMENT_SET_NO": 999, "REV_AT_EPOCH": 388, "BSTAR": -0.00010424, "MEAN_MOTION_DOT": -0.00016471, "MEAN_MOTION_DDOT": 0}, "tle": {"line1": "1 66485U 25263A   25335.83335647 -.00016471  00000+0 -10424-3 0  9998", "line2": "2 66485  42.9993 189.7452 0002048 267.9321 300.0065 15.75055210  3881"}}, "geometry": {"type": "Point", "coordinates": [-5.371981169578353, 11.377446655600897]}}]}